[{"OBJECT_NAME":"STARLINK-3306","OBJECT_ID":"2021-125H","EPOCH":"2026-03-09T22:53:36.225600","MEAN_MOTION":15.0881478,"ECCENTRICITY":0.00013466,"INCLINATION":53.2161,"RA_OF_ASC_NODE":237.9248,"ARG_OF_PERICENTER":89.9292,"MEAN_ANOMALY":270.1855,"EPHEMERIS_TYPE":0,"CLASSIFICATION_TYPE":"U","NORAD_CAT_ID":50163,"ELEMENT_SET_NO":999,"REV_AT_EPOCH":23677,"BSTAR":0.00031594804,"MEAN_MOTION_DOT":4.741e-5,"MEAN_MOTION_DDOT":0},{"OBJECT_NAME":"CHAMRAN-1","OBJECT_ID":"2024-165B","EPOCH":"2026-03-09T21:50:33.228384","MEAN_MOTION":15.10235792,"ECCENTRICITY":0.0045019,"INCLINATION":64.0789,"RA_OF_ASC_NODE":8.4365,"ARG_OF_PERICENTER":310.8781,"MEAN_ANOMALY":48.8437,"EPHEMERIS_TYPE":0,"CLASSIFICATION_TYPE":"U","NORAD_CAT_ID":61072,"ELEMENT_SET_NO":999,"REV_AT_EPOCH":8166,"BSTAR":0.0004432,"MEAN_MOTION_DOT":7.263e-5,"MEAN_MOTION_DDOT":0}]
